FALCON 9 DEB            
1 54016U 22125BE  22290.70061207  .00255536  35946-4  71401-3 0  9999
2 54016  53.2338  32.7354 0010021 335.2824  24.7724 15.93146764  2180
FALCON 9 DEB            
1 54017U 22125BF  22291.38594627  .00308555  48265-4  79690-3 0  9998
2 54017  53.2313  29.1875 0008265 339.3064  20.7630 15.94615279  2297
FALCON 9 DEB            
1 54018U 22125BG  22291.31382004  .00333242  55492-4  79027-3 0  9991
2 54018  53.2265  29.4377 0010710 317.4983  42.5217 15.96131445  2281
FALCON 9 DEB            
1 54019U 22125BH  22291.31232256  .00301337  47201-4  72098-3 0  9995
2 54019  53.2258  29.4235 0008075 306.6661  53.3626 15.96035106  2282
CENTISPACE-1 S5         
1 54020U 22126A   22291.42728594  .00003090  00000+0  70746-3 0  9999
2 54020  54.9974 143.6967 0013112 319.7568  40.2649 14.57924513  1595
CENTISPACE-1 S6         
1 54021U 22126B   22291.56259314  .00003374  00000+0  76476-3 0  9995
2 54021  54.9987 143.1409 0014436 317.7077  42.2806 14.58166666  1606
CZ-11H R/B              
1 54022U 22126C   22290.94769086  .00031358  00000+0  54377-3 0  9998
2 54022  56.1488 143.5199 0339078 332.7585  25.6001 15.06249134  1563
GAZELLE                 
1 54023U 22127A   22291.22436960 -.00000043  00000+0  00000+0 0  9992
2 54023  98.3139 290.3210 0012449 268.0668  91.9095 14.41643699  1519
ELECTRON KICK STAGE R/B 
1 54024U 22127B   22291.27665108  .00004929  00000+0  66792-3 0  9996
2 54024  98.2931 290.8570 0141328 348.7967  11.0086 14.72679071  1543
ELECTRON R/B            
1 54025U 22127C   22290.97871018  .00134925  59376-5  13357-2 0  9996
2 54025  98.3343 291.3756 0345521 183.6274 176.2437 15.16856326  1556
2022-128A               
1 54026U 22128A   22290.41666670 -.00000125  00000+0  00000+0 0  9990
2 54026   6.8630 191.8920 3724866 179.4910 134.1170  1.61691004   307
2022-128B               
1 54027U 22128B   22290.43750000 -.00000242  00000+0  00000+0 0  9994
2 54027  26.2830 190.6840 7235448 182.3090  71.1440  2.27315776   293
2022-128C               
1 54028U 22128C   22290.94650921  .00005294  00000+0  14635-2 0  9995
2 54028  26.8473 188.3004 5936105 186.8009 336.9154  4.11977728   362
ASO-S                   
1 54029U 22129A   22291.55151024 -.00000765  00000+0 -18258-3 0  9991
2 54029  98.2679 296.9014 0013793 237.0168 122.9788 14.50851103  1381
CZ-2D R/B               
1 54030U 22129B   22290.90681799  .00000317  00000+0  84190-4 0  9998
2 54030  98.1945 296.1772 0019612  88.8515 271.4932 14.54802393  1309
COSMOS 2559 [GLONASS-K] 
1 54031U 22130A   22290.70604852 -.00000084  00000+0  00000+0 0  9999
2 54031  64.7808   1.3992 0001977 330.3083  30.7112  2.12838099   169
FREGAT R/B              
1 54032U 22130B   22284.14949806 -.00000087  00000+0  00000+0 0  9995
2 54032  64.8932   1.6824 0035362 228.7163 143.8243  2.11225083    06
ANGOSAT 2               
1 54033U 22131A   22291.20525159  .00000070  00000+0  00000+0 0  9994
2 54033   0.0322  21.1525 0001500  66.6284  73.9924  0.98860820    69
HJ-2E                   
1 54035U 22132A   22291.47597787  .00011279  00000+0  47157-3 0  9993
2 54035  97.3948 296.9531 0011740 251.2473 264.3080 15.23703409   839
2022-132B               
1 54036U 22132B   22291.51252628  .00140254  00000+0  43564-2 0  9994
2 54036  97.3572 297.0328 0034955 307.0486 204.4320 15.32198303   840
2022-132C               
1 54037U 22132C   22291.47421097  .00015548  00000+0  15130-2 0  9993
2 54037  97.6515 296.7232 0189115 153.5777 207.5148 14.80081936   811
2022-132D               
1 54038U 22132D   22291.48501894  .00044764  00000+0  22057-2 0  9997
2 54038  97.5887 296.9790 0099564 214.4435 145.0249 15.13479053   838
CZ-2C R/B               
1 54039U 22132E   22291.50444558  .00005455  00000+0  28241-3 0  9990
2 54039  97.2519 296.6330 0047231 191.7217 319.6812 15.15633158   839
2022-132F               
1 54040U 22132F   22291.50850524  .00035809  00000+0  20065-2 0  9997
2 54040  97.1597 296.7263 0122716 204.8007 154.7208 15.07024618   830
2022-132G               
1 54041U 22132G   22291.50977794  .00017661  00000+0  15302-2 0  9991
2 54041  97.1919 296.5971 0151330 150.4591 210.5220 14.88657745   826
2022-133A               
1 54042U 22133A   22291.34678054  .00026925  00000+0  10624-2 0  9997
2 54042  34.9990 264.3943 0009194 301.0438 220.8775 15.24585593   541
2022-133B               
1 54043U 22133B   22291.33785543  .00012430  00000+0  49013-3 0  9990
2 54043  34.9980 264.4432 0009185 308.4054 166.9156 15.24728010   546
2022-133C               
1 54044U 22133C   22291.34343272  .00029869  00000+0  11666-2 0  9997
2 54044  34.9991 264.4056 0009741 309.4139 198.0564 15.24905389   549
2022-133D               
1 54045U 22133D   22291.34294765  .00018092  00000+0  70499-3 0  9996
2 54045  34.9979 264.4017 0009346 316.8438 190.5020 15.25064075   541
2022-133E               
1 54046U 22133E   22291.40800421 -.00000291  00000+0 -10135-4 0  9992
2 54046  34.9980 264.0161 0008112 299.6108 195.8381 15.24259054   553
2022-134A               
1 54048U 22134A   22289.72341804 -.00043278  00000+0 -19333+0 0  9998
2 54048  26.8132 300.6532 8048025 180.4401 358.8259  1.34950542    13
2022-134B               
1 54049U 22134B   22290.21246941 -.00053559  00000+0 -31371+0 0  9990
2 54049  26.8562 300.5793 8042045 180.5685 236.1385  1.34860548    25
COSMOS 2560             
1 54050U 22135A   22291.57054625  .00037841  00000+0  22191-3 0  9997
2 54050  96.3464  19.3532 0011920 235.1548 246.6544 15.78109893   420
